NORAD_CAT_ID,OBJECT_NAME,OBJECT_TYPE,EPOCH,MEAN_MOTION,ECCENTRICITY,INCLINATION,RA_OF_ASC_NODE,ARG_OF_PERICENTER,MEAN_ANOMALY,BSTAR,MEAN_MOTION_DOT,MEAN_MOTION_DDOT,TLE_LINE0,TLE_LINE1,TLE_LINE2,SEMIMAJOR_AXIS,PERIOD,APOGEE,PERIGEE,DECAYED
54007.0,STARLINK-5132,PAYLOAD,2023-07-07 10:01:03,15.08845448,7.78e-05,53.2156,276.4235,103.1602,256.9477,0.0001361,1.879e-05,0.0,0 STARLINK-5132,1 54007U 22125AV  23188.41740432  .00001879  00000-0  13610-3 0  9994,2 54007  53.2156 276.4235 0000778 103.1602 256.9477 15.08845448 42131,6917.864,95.437,540.267,539.191,0.0
54007.0,STARLINK-5132,PAYLOAD,2023-07-07 16:22:35,15.08856089,7.47e-05,53.2159,275.2347,94.7375,265.3703,0.00029685,4.442e-05,0.0,0 STARLINK-5132,1 54007U 22125AV  23188.68235955  .00004442  00000-0  29685-3 0  9990,2 54007  53.2159 275.2347 0000747  94.7375 265.3703 15.08856089 42176,6917.831,95.437,540.213,539.179,0.0
54007.0,STARLINK-5132,PAYLOAD,2023-07-08 05:05:41,15.08844551,5.73e-05,53.215,272.8603,78.3091,281.7965,0.00019413,2.804e-05,0.0,0 STARLINK-5132,1 54007U 22125AV  23189.21228278  .00002804  00000-0  19413-3 0  9998,2 54007  53.2150 272.8603 0000573  78.3091 281.7965 15.08844551 42257,6917.866,95.437,540.128,539.335,0.0
54007.0,STARLINK-5132,PAYLOAD,2023-07-09 04:56:29,15.08825775,5.5e-05,53.2162,268.3946,86.2072,273.8983,-8.0735e-05,-1.572e-05,0.0,0 STARLINK-5132,1 54007U 22125AV  23190.20589500 -.00001572  00000-0 -80735-4 0  9996,2 54007  53.2162 268.3946 0000550  86.2072 273.8983 15.08825775 42408,6917.924,95.438,540.169,539.408,0.0
54007.0,STARLINK-5132,PAYLOAD,2023-07-09 14:28:48,15.0883016,7.52e-05,53.2156,266.6111,75.7779,284.3296,0.00013966,1.935e-05,0.0,0 STARLINK-5132,1 54007U 22125AV  23190.60333434  .00001935  00000-0  13966-3 0  9995,2 54007  53.2156 266.6111 0000752  75.7779 284.3296 15.08830160 42461,6917.91,95.438,540.296,539.255,0.0
54007.0,STARLINK-5132,PAYLOAD,2023-07-10 11:08:48,15.0884715,8.3e-05,53.2153,262.7449,72.0634,288.0449,0.00064785,0.0001004,0.0,0 STARLINK-5132,1 54007U 22125AV  23191.46445500  .00010040  00000-0  64785-3 0  9990,2 54007  53.2153 262.7449 0000830  72.0634 288.0449 15.08847150 42598,6917.859,95.437,540.298,539.149,0.0
54007.0,STARLINK-5132,PAYLOAD,2023-07-10 22:16:30,15.08849671,8.28e-05,53.2143,260.6633,63.267,296.8407,0.00048814,7.492e-05,0.0,0 STARLINK-5132,1 54007U 22125AV  23191.92813240  .00007492  00000-0  48814-3 0  9993,2 54007  53.2143 260.6633 0000828  63.2670 296.8407 15.08849671 42667,6917.851,95.437,540.289,539.143,0.0
54007.0,STARLINK-5132,PAYLOAD,2023-07-11 07:48:49,15.08849665,9.14e-05,53.2155,258.8795,68.7065,291.4024,0.00032241,4.848e-05,0.0,0 STARLINK-5132,1 54007U 22125AV  23192.32557221  .00004848  00000-0  32241-3 0  9991,2 54007  53.2155 258.8795 0000914  68.7065 291.4024 15.08849665 42728,6917.851,95.437,540.348,539.084,0.0
54007.0,STARLINK-5132,PAYLOAD,2023-07-12 04:28:50,15.08840972,0.0001066,53.2161,255.012,67.3672,292.7433,1.9069e-05,1.6e-07,0.0,0 STARLINK-5132,1 54007U 22125AV  23193.18669170  .00000016  00000-0  19069-4 0  9990,2 54007  53.2161 255.0120 0001066  67.3672 292.7433 15.08840972 42858,6917.877,95.437,540.48,539.005,0.0
54007.0,STARLINK-5132,PAYLOAD,2023-07-13 09:05:46,15.08842281,0.0001067,53.2161,249.6572,99.9414,260.1699,6.1305e-05,6.88e-06,0.0,0 STARLINK-5132,1 54007U 22125AV  23194.37901108  .00000688  00000-0  61305-4 0  9997,2 54007  53.2161 249.6572 0001067  99.9414 260.1699 15.08842281 43033,6917.873,95.437,540.477,539.0,0.0
54007.0,STARLINK-5132,PAYLOAD,2023-07-14 08:56:33,15.08838114,0.0001088,53.216,245.1994,90.4035,269.7082,5.5586e-05,5.97e-06,0.0,0 STARLINK-5132,1 54007U 22125AV  23195.37261448  .00000597  00000-0  55586-4 0  9997,2 54007  53.2160 245.1994 0001088  90.4035 269.7082 15.08838114 43186,6917.886,95.438,540.504,538.998,0.0
54007.0,STARLINK-5132,PAYLOAD,2023-07-15 15:08:52,15.08849095,0.000104,53.2154,239.55,80.0049,280.1061,0.00018953,2.731e-05,0.0,0 STARLINK-5132,1 54007U 22125AV  23196.63116837  .00002731  00000-0  18953-3 0  9996,2 54007  53.2154 239.5500 0001040  80.0049 280.1061 15.08849095 43372,6917.853,95.437,540.437,538.998,0.0
54007.0,STARLINK-5132,PAYLOAD,2023-07-15 19:55:03,15.08830623,9.09e-05,53.2157,238.6581,87.7005,272.4092,-7.6102e-05,-1.498e-05,0.0,0 STARLINK-5132,1 54007U 22125AV  23196.82989740 -.00001498  00000-0 -76102-4 0  9990,2 54007  53.2157 238.6581 0000909  87.7005 272.4092 15.08830623 43402,6917.909,95.438,540.403,539.145,0.0
54007.0,STARLINK-5132,PAYLOAD,2023-07-16 19:45:50,15.08834926,9.49e-05,53.2145,234.1975,83.9531,276.1569,2.3798e-05,9.1e-07,0.0,0 STARLINK-5132,1 54007U 22125AV  23197.82349903  .00000091  00000-0  23798-4 0  9991,2 54007  53.2145 234.1975 0000949  83.9531 276.1569 15.08834926 43559,6917.896,95.438,540.417,539.104,0.0
54007.0,STARLINK-5132,PAYLOAD,2023-07-18 08:19:42,15.08852567,9.18e-05,53.214,227.3581,82.8044,277.3052,0.00047038,7.209e-05,0.0,0 STARLINK-5132,1 54007U 22125AV  23199.34701737  .00007209  00000-0  47038-3 0  9997,2 54007  53.2140 227.3581 0000918  82.8044 277.3052 15.08852567 43780,6917.842,95.437,540.342,539.072,0.0
54007.0,STARLINK-5132,PAYLOAD,2023-07-19 01:48:56,15.08843143,9.77e-05,53.2141,224.0869,81.2911,278.8192,0.00012532,1.707e-05,0.0,0 STARLINK-5132,1 54007U 22125AV  23200.07565866  .00001707  00000-0  12532-3 0  9999,2 54007  53.2141 224.0869 0000977  81.2911 278.8192 15.08843143 43898,6917.871,95.437,540.412,539.06,0.0
54007.0,STARLINK-5132,PAYLOAD,2023-07-21 01:30:31,15.08840415,9.19e-05,53.2147,215.1657,87.1283,272.9815,0.0001434,1.995e-05,0.0,0 STARLINK-5132,1 54007U 22125AV  23202.06286046  .00001995  00000-0  14340-3 0  9998,2 54007  53.2147 215.1657 0000919  87.1283 272.9815 15.08840415 44193,6917.879,95.438,540.38,539.108,0.0
54007.0,STARLINK-5132,PAYLOAD,2023-07-24 12:10:34,15.08840524,9.55e-05,53.2153,199.7035,88.626,271.4842,9.4553e-05,1.217e-05,0.0,0 STARLINK-5132,1 54007U 22125AV  23205.50734408  .00001217  00000-0  94553-4 0  9992,2 54007  53.2153 199.7035 0000955  88.6260 271.4842 15.08840524 44665,6917.879,95.438,540.404,539.083,0.0
54007.0,STARLINK-5132,PAYLOAD,2023-07-25 08:50:35,15.08843351,9.98e-05,53.2155,195.8371,95.6216,264.489,6.7833e-05,7.92e-06,0.0,0 STARLINK-5132,1 54007U 22125AV  23206.36846275  .00000792  00000-0  67833-4 0  9991,2 54007  53.2155 195.8371 0000998  95.6216 264.4890 15.08843351 44793,6917.87,95.437,540.426,539.045,0.0
54007.0,STARLINK-5132,PAYLOAD,2023-07-26 10:16:45,15.08837409,0.0001339,53.2145,191.0761,101.1033,259.0109,5.0845e-05,5.21e-06,0.0,0 STARLINK-5132,1 54007U 22125AV  23207.42830848  .00000521  00000-0  50845-4 0  9993,2 54007  53.2145 191.0761 0001339 101.1033 259.0109 15.08837409 44951,6917.888,95.438,540.68,538.827,0.0
54007.0,STARLINK-5132,PAYLOAD,2023-07-27 02:10:38,15.08825642,0.00011,53.2154,188.1053,89.9257,270.1861,-4.2868e-05,-9.7e-06,0.0,0 STARLINK-5132,1 54007U 22125AV  23208.09072250 -.00000970  00000-0 -42868-4 0  9998,2 54007  53.2154 188.1053 0001100  89.9257 270.1861 15.08825642 45102,6917.924,95.438,540.55,539.028,0.0
54007.0,STARLINK-5132,PAYLOAD,2023-07-27 08:32:10,15.088314,0.0001075,53.2158,186.9156,91.4668,268.6447,-4.3622e-06,-3.57e-06,0.0,0 STARLINK-5132,1 54007U 22125AV  23208.35567976 -.00000357  00000-0 -43622-5 0  9990,2 54007  53.2158 186.9156 0001075  91.4668 268.6447 15.08831400 45090,6917.907,95.438,540.515,539.028,0.0
54007.0,STARLINK-5132,PAYLOAD,2023-07-27 22:50:38,15.08865146,0.0001199,53.2158,184.239,90.2093,269.9037,-0.00029722,-5.018e-05,0.0,0 STARLINK-5132,1 54007U 22125AV  23208.95183439 -.00005018  00000-0 -29722-3 0  9996,2 54007  53.2158 184.2390 0001199  90.2093 269.9037 15.08865146 45236,6917.804,95.436,540.498,538.839,0.0
54007.0,STARLINK-5132,PAYLOAD,2023-07-28 05:12:11,15.08843631,0.0001124,53.2149,183.05,98.2733,261.8387,0.00013929,1.93e-05,0.0,0 STARLINK-5132,1 54007U 22125AV  23209.21679647  .00001930  00000-0  13929-3 0  9996,2 54007  53.2149 183.0500 0001124  98.2733 261.8387 15.08843631 45271,6917.869,95.437,540.512,538.957,0.0
54007.0,STARLINK-5132,PAYLOAD,2023-07-28 09:58:20,15.08844692,0.0001129,53.2151,182.1578,95.82,264.2921,0.000248,3.662e-05,0.0,0 STARLINK-5132,1 54007U 22125AV  23209.41551652  .00003662  00000-0  24800-3 0  9997,2 54007  53.2151 182.1578 0001129  95.8200 264.2921 15.08844692 45253,6917.866,95.437,540.512,538.95,0.0
54007.0,STARLINK-5132,PAYLOAD,2023-07-29 08:13:44,15.08856271,0.0001146,53.2152,177.9949,96.7152,263.397,0.00036155,5.473e-05,0.0,0 STARLINK-5132,1 54007U 22125AV  23210.34287285  .00005473  00000-0  36155-3 0  9997,2 54007  53.2152 177.9949 0001146  96.7152 263.3970 15.08856271 45444,6917.831,95.437,540.488,538.903,0.0
54007.0,STARLINK-5132,PAYLOAD,2023-07-30 01:42:58,15.08847537,0.0001258,53.2157,174.7234,93.4124,266.7012,0.00012364,1.681e-05,0.0,0 STARLINK-5132,1 54007U 22125AV  23211.07151287  .00001681  00000-0  12364-3 0  9993,2 54007  53.2157 174.7234 0001258  93.4124 266.7012 15.08847537 45559,6917.857,95.437,540.593,538.852,0.0
54007.0,STARLINK-5132,PAYLOAD,2023-07-31 01:33:45,15.08844175,0.0001334,53.2156,170.2627,93.0505,267.064,0.00014696,2.052e-05,0.0,0 STARLINK-5132,1 54007U 22125AV  23212.06511139  .00002052  00000-0  14696-3 0  9992,2 54007  53.2156 170.2627 0001334  93.0505 267.0640 15.08844175 45702,6917.868,95.437,540.655,538.81,0.0
54007.0,STARLINK-5132,PAYLOAD,2023-08-01 02:59:56,15.08834747,0.0001221,53.2147,165.5046,98.8805,261.2326,-6.3236e-05,-1.294e-05,0.0,0 STARLINK-5132,1 54007U 22125AV  23213.12495522 -.00001294  00000-0 -63236-4 0  9991,2 54007  53.2147 165.5046 0001221  98.8805 261.2326 15.08834747 45863,6917.896,95.438,540.606,538.917,0.0
54007.0,STARLINK-5132,PAYLOAD,2023-08-02 02:50:43,15.08845862,0.0001255,53.2163,161.0476,101.0125,259.1009,7.2148e-05,8.61e-06,0.0,0 STARLINK-5132,1 54007U 22125AV  23214.11855415  .00000861  00000-0  72148-4 0  9991,2 54007  53.2163 161.0476 0001255 101.0125 259.1009 15.08845862 46010,6917.862,95.437,540.596,538.859,0.0
